[{"OBJECT_NAME":"STARLINK-1191","OBJECT_ID":"2020-012AW","EPOCH":"2026-03-09T05:05:39.649344","MEAN_MOTION":15.30216929,"ECCENTRICITY":0.00013757,"INCLINATION":53.1617,"RA_OF_ASC_NODE":1.0406,"ARG_OF_PERICENTER":90.2006,"MEAN_ANOMALY":269.9152,"EPHEMERIS_TYPE":0,"CLASSIFICATION_TYPE":"U","NORAD_CAT_ID":45222,"ELEMENT_SET_NO":999,"REV_AT_EPOCH":33544,"BSTAR":0.00035499959,"MEAN_MOTION_DOT":0.00010175,"MEAN_MOTION_DDOT":0},{"OBJECT_NAME":"GAOFEN-9 03","OBJECT_ID":"2020-039A","EPOCH":"2026-03-09T21:55:15.121344","MEAN_MOTION":15.30529116,"ECCENTRICITY":0.0013094,"INCLINATION":97.5219,"RA_OF_ASC_NODE":201.2158,"ARG_OF_PERICENTER":77.4533,"MEAN_ANOMALY":282.8172,"EPHEMERIS_TYPE":0,"CLASSIFICATION_TYPE":"U","NORAD_CAT_ID":45794,"ELEMENT_SET_NO":999,"REV_AT_EPOCH":31856,"BSTAR":0.00039258132,"MEAN_MOTION_DOT":0.00011544,"MEAN_MOTION_DDOT":0}]
